{
    "CCSDS_OMM_VERS": "3.0",
    "COMMENT": "GENERATED VIA SPACE-TRACK.ORG API",
    "CREATION_DATE": "2025-05-23T14:56:28",
    "ORIGINATOR": "18 SPCS",
    "OBJECT_NAME": "GALILEO 10 (206)",
    "OBJECT_ID": "2015-045B",
    "CENTER_NAME": "EARTH",
    "REF_FRAME": "TEME",
    "TIME_SYSTEM": "UTC",
    "MEAN_ELEMENT_THEORY": "SGP4",
    "EPOCH": "2025-05-22T19:00:12.575808",
    "MEAN_MOTION": "1.70473728",
    "ECCENTRICITY": "0.00031130",
    "INCLINATION": "55.0744",
    "RA_OF_ASC_NODE": "232.3839",
    "ARG_OF_PERICENTER": "71.4669",
    "MEAN_ANOMALY": "288.6068",
    "EPHEMERIS_TYPE": "0",
    "CLASSIFICATION_TYPE": "U",
    "NORAD_CAT_ID": "40890",
    "ELEMENT_SET_NO": "999",
    "REV_AT_EPOCH": "6038",
    "BSTAR": "0.00000000000000",
    "MEAN_MOTION_DOT": "0.00000003",
    "MEAN_MOTION_DDOT": "0.0000000000000",
    "SEMIMAJOR_AXIS": "29600.352",
    "PERIOD": "844.705",
    "APOAPSIS": "23231.431",
    "PERIAPSIS": "23213.002",
    "OBJECT_TYPE": "PAYLOAD",
    "RCS_SIZE": "LARGE",
    "COUNTRY_CODE": "ESA",
    "LAUNCH_DATE": "2015-09-11",
    "SITE": "FRGUI",
    "DECAY_DATE": null,
    "FILE": "4737067",
    "GP_ID": "288177786",
    "TLE_LINE0": "0 GALILEO 10 (206)",
    "TLE_LINE1": "1 40890U 15045B   25142.79181222  .00000003  00000-0  00000+0 0  9994",
    "TLE_LINE2": "2 40890  55.0744 232.3839 0003113  71.4669 288.6068  1.70473728 60383"
}